[{"OBJECT_NAME":"HAWK-5A","OBJECT_ID":"2022-057AB","EPOCH":"2026-03-09T22:01:40.756512","MEAN_MOTION":15.47548342,"ECCENTRICITY":0.00059632,"INCLINATION":97.6458,"RA_OF_ASC_NODE":221.7352,"ARG_OF_PERICENTER":72.39,"MEAN_ANOMALY":287.8,"EPHEMERIS_TYPE":0,"CLASSIFICATION_TYPE":"U","NORAD_CAT_ID":52757,"ELEMENT_SET_NO":999,"REV_AT_EPOCH":21097,"BSTAR":0.00046469893,"MEAN_MOTION_DOT":0.00023866,"MEAN_MOTION_DDOT":0},{"OBJECT_NAME":"JILIN-1 GAOFEN 03D53","OBJECT_ID":"2022-155C","EPOCH":"2026-03-09T21:59:34.489824","MEAN_MOTION":15.46744133,"ECCENTRICITY":0.00055317,"INCLINATION":97.6077,"RA_OF_ASC_NODE":203.8168,"ARG_OF_PERICENTER":17.7738,"MEAN_ANOMALY":342.3704,"EPHEMERIS_TYPE":0,"CLASSIFICATION_TYPE":"U","NORAD_CAT_ID":54253,"ELEMENT_SET_NO":999,"REV_AT_EPOCH":18411,"BSTAR":0.00074680835,"MEAN_MOTION_DOT":0.00037423,"MEAN_MOTION_DDOT":0}]
